GLOBALSTAR M068 [-]     
1 32266U 07048D   23322.15222182 -.00000069  00000+0  19557-3 0  9998
2 32266  51.9889 261.1716 0000942 359.3092 103.7394 12.62771271744942
GLOBALSTAR M079 [+]     
1 37188U 10054A   23322.39488684 -.00000103  00000+0  53711-5 0  9995
2 37188  52.0026  95.6320 0001084 110.6133 284.3090 12.62269915604297
GLOBALSTAR M074 [+]     
1 37189U 10054B   23321.81617472 -.00000108  00000+0 -23008-4 0  9992
2 37189  52.0002  96.8049 0000853 112.4807  52.0037 12.62271926604144
GLOBALSTAR M076 [+]     
1 37190U 10054C   23322.53633248 -.00000105  00000+0 -75311-5 0  9995
2 37190  52.0017  94.7328 0001241 134.4230 302.9920 12.62263820604316
GLOBALSTAR M077 [+]     
1 37191U 10054D   23321.67318740 -.00000097  00000+0  38488-4 0  9999
2 37191  52.0083  54.0516 0000578 123.2907  49.2423 12.62266396604216
GLOBALSTAR M075 [+]     
1 37192U 10054E   23321.82307411 -.00000112  00000+0 -46015-4 0  9994
2 37192  51.9922 139.4866 0001110  93.5809 279.8270 12.62267574603091
GLOBALSTAR M073 [+]     
1 37193U 10054F   23322.55487272 -.00000096  00000+0  45550-4 0  9993
2 37193  52.0073  50.6327 0000650 121.6825 340.6344 12.62269245605061
GLOBALSTAR M083 [+]     
1 37739U 11033A   23321.87027203 -.00000092  00000+0  65521-4 0  9991
2 37739  51.9881   2.2383 0000497  74.5063  96.4058 12.62262906573942
GLOBALSTAR M088 [+]     
1 37740U 11033B   23322.06174446 -.00000082  00000+0  12184-3 0  9992
2 37740  51.9739 267.6327 0000941  59.3261  21.6340 12.62267555569805
GLOBALSTAR M091 [+]     
1 37741U 11033C   23321.54083748 -.00000073  00000+0  17156-3 0  9993
2 37741  51.9996 231.7425 0001199  65.5104 106.4228 12.62268592570231
GLOBALSTAR M085 [+]     
1 37742U 11033D   23322.39889250 -.00000101  00000+0  14463-4 0  9991
2 37742  51.9850 180.6797 0001268  78.1765  95.2169 12.62265348571343
GLOBALSTAR M081 [+]     
1 37743U 11033E   23322.02368936 -.00000084  00000+0  11045-3 0  9997
2 37743  51.9941 184.2532 0001368  85.1016  62.4959 12.62267031571333
GLOBALSTAR M089 [+]     
1 37744U 11033F   23321.91147615 -.00000110  00000+0 -33499-4 0  9993
2 37744  51.9904 138.9294 0001003 110.1690  67.3613 12.62269697571787
GLOBALSTAR M084 [+]     
1 38040U 11080A   23322.12730025 -.00000084  00000+0  10984-3 0  9994
2 38040  52.0032   5.2563 0000365 150.4280 227.2512 12.62267768550079
GLOBALSTAR M080 [+]     
1 38041U 11080B   23322.41658619 -.00000088  00000+0  85602-4 0  9999
2 38041  52.0084   5.7794 0000579 153.1840 219.7472 12.62266183550090
GLOBALSTAR M082 [+]     
1 38042U 11080C   23322.03838823 -.00000092  00000+0  63360-4 0  9997
2 38042  52.0088 322.3147 0000862  25.6892   9.0437 12.62268023550782
GLOBALSTAR M092 [+]     
1 38043U 11080D   23322.56152071 -.00000097  00000+0  36570-4 0  9998
2 38043  52.0102  51.0641 0000479 159.3836 214.3272 12.62262635549343
GLOBALSTAR M090 [+]     
1 38044U 11080E   23321.77795501 -.00000090  00000+0  78279-4 0  9997
2 38044  51.9897 317.6590 0000621  47.0066 124.4962 12.62263542550699
GLOBALSTAR M086 [+]     
1 38045U 11080F   23321.72552118 -.00000086  00000+0  97837-4 0  9994
2 38045  51.9908 318.3264 0001222 103.4439  68.6532 12.62264384550639
GLOBALSTAR M097 [+]     
1 39072U 13005A   23322.42677755 -.00000085  00000+0  10449-3 0  9999
2 39072  52.0044 230.1512 0001169  67.2132 292.8859 12.62272653498055
GLOBALSTAR M093 [+]     
1 39073U 13005B   23322.16275355 -.00000076  00000+0  15576-3 0  9997
2 39073  51.9808 225.1819 0001417  69.9219 290.1800 12.62268993498012
GLOBALSTAR M094 [+]     
1 39074U 13005C   23321.76688186 -.00000113  00000+0 -50902-4 0  9999
2 39074  51.9933 140.1915 0001230  95.1872 264.9135 12.62269948499454
GLOBALSTAR M096 [+]     
1 39075U 13005D   23322.33440975 -.00000097  00000+0  37641-4 0  9991
2 39075  52.0057 186.5292 0001349  79.1643 280.9375 12.62266395498798
GLOBALSTAR M078 [+]     
1 39076U 13005E   23321.59519592 -.00000002  00000+0  56707-3 0  9990
2 39076  51.9876 274.0721 0001201   8.9033 351.1855 12.62264136496979
GLOBALSTAR M095 [+]     
1 39077U 13005F   23321.54251705 -.00000085  00000+0  10482-3 0  9996
2 39077  51.9802 271.7171 0001229  36.3022 323.7928 12.62270654496827
GLOBALSTAR M087 [+]     
1 52888U 22064A   23322.41774383 -.00000084  00000+0  84089-4 0  9999
2 52888  51.9756 226.8019 0009123 182.3440 177.7419 13.37558263 69184
